{"type":"FeatureCollection","features":[{"type":"Feature","geometry":{"type":"Point","coordinates":[12.453387,41.903282]},"properties":{"name":"Vatican City","country":"Vatican","iso2":"VA","pop":832,"labelrank":3}},{"type":"Feature","geometry":{"type":"Point","coordinates":[12.44177,43.936096]},"properties":{"name":"San Marino","country":"San Marino","iso2":"SM","pop":29579,"labelrank":5}},{"type":"Feature","geometry":{"type":"Point","coordinates":[9.51667,47.133724]},"properties":{"name":"Vaduz","country":"Liechtenstein","iso2":"LI","pop":36281,"labelrank":5}},{"type":"Feature","geometry":{"type":"Point","coordinates":[31.199997,-26.466667]},"properties":{"name":"Lobamba","country":"eSwatini","iso2":"SZ","pop":9782,"labelrank":8}},{"type":"Feature","geometry":{"type":"Point","coordinates":[6.130003,49.61166]},"properties":{"name":"Luxembourg","country":"Luxembourg","iso2":"LU","pop":107260,"labelrank":8}},{"type":"Feature","geometry":{"type":"Point","coordinates":[158.149974,6.916644]},"properties":{"name":"Palikir","country":"Federated States of Micronesia","iso2":"FM","pop":4645,"labelrank":5}},{"type":"Feature","geometry":{"type":"Point","coordinates":[171.38,7.103004]},"properties":{"name":"Majuro","country":"Marshall Islands","iso2":"MH","pop":25400,"labelrank":5}},{"type":"Feature","geometry":{"type":"Point","coordinates":[179.216647,-8.516652]},"properties":{"name":"Funafuti","country":"Tuvalu","iso2":"TV","pop":4749,"labelrank":5}},{"type":"Feature","geometry":{"type":"Point","coordinates":[134.626549,7.487396]},"properties":{"name":"Melekeok","country":"Palau","iso2":"PW","pop":7026,"labelrank":5}},{"type":"Feature","geometry":{"type":"Point","coordinates":[-9.652522,26.119167]},"properties":{"name":"Bir Lehlou","country":"Western Sahara","iso2":"EH","pop":500,"labelrank":5}},{"type":"Feature","geometry":{"type":"Point","coordinates":[7.406913,43.739646]},"properties":{"name":"Monaco","country":"Monaco","iso2":"MC","pop":36371,"labelrank":5}},{"type":"Feature","geometry":{"type":"Point","coordinates":[173.017571,1.338188]},"properties":{"name":"Tarawa","country":"Kiribati","iso2":"KI","pop":28802,"labelrank":5}},{"type":"Feature","geometry":{"type":"Point","coordinates":[43.240244,-11.704158]},"properties":{"name":"Moroni","country":"Comoros","iso2":"KM","pop":128698,"labelrank":5}},{"type":"Feature","geometry":{"type":"Point","coordinates":[1.526594,42.510753]},"properties":{"name":"Andorra","country":"Andorra","iso2":"AD","pop":53998,"labelrank":5}},{"type":"Feature","geometry":{"type":"Point","coordinates":[-61.517031,10.651997]},"properties":{"name":"Port-of-Spain","country":"Trinidad and Tobago","iso2":"TT","pop":294934,"labelrank":8}},{"type":"Feature","geometry":{"type":"Point","coordinates":[30.058586,-1.951644]},"properties":{"name":"Kigali","country":"Rwanda","iso2":"RW","pop":860000,"labelrank":5}},{"type":"Feature","geometry":{"type":"Point","coordinates":[31.133335,-26.316651]},"properties":{"name":"Mbabane","country":"eSwatini","iso2":"SZ","pop":90138,"labelrank":8}},{"type":"Feature","geometry":{"type":"Point","coordinates":[31.580026,4.829975]},"properties":{"name":"Juba","country":"South Sudan","iso2":"SS","pop":111975,"labelrank":5}},{"type":"Feature","geometry":{"type":"Point","coordinates":[4.269961,52.080037]},"properties":{"name":"The Hague","country":"Netherlands","iso2":"NL","pop":1406000,"labelrank":8}},{"type":"Feature","geometry":{"type":"Point","coordinates":[14.514969,46.055288]},"properties":{"name":"Ljubljana","country":"Slovenia","iso2":"SI","pop":314807,"labelrank":8}},{"type":"Feature","geometry":{"type":"Point","coordinates":[17.116981,48.150018]},"properties":{"name":"Bratislava","country":"Slovakia","iso2":"SK","pop":423737,"labelrank":7}},{"type":"Feature","geometry":{"type":"Point","coordinates":[51.532968,25.286556]},"properties":{"name":"Doha","country":"Qatar","iso2":"QA","pop":1450000,"labelrank":8}},{"type":"Feature","geometry":{"type":"Point","coordinates":[19.266307,42.465972]},"properties":{"name":"Podgorica","country":"Montenegro","iso2":"ME","pop":145850,"labelrank":8}},{"type":"Feature","geometry":{"type":"Point","coordinates":[79.949993,6.900004]},"properties":{"name":"Sri Jawewardenepura Kotte","country":"Sri Lanka","iso2":"LK","pop":115826,"labelrank":6}},{"type":"Feature","geometry":{"type":"Point","coordinates":[120.569943,16.429991]},"properties":{"name":"Baguio City","country":"Philippines","iso2":"PH","pop":447824,"labelrank":5}},{"type":"Feature","geometry":{"type":"Point","coordinates":[35.750004,-6.183306]},"properties":{"name":"Dodoma","country":"Tanzania","iso2":"TZ","pop":218269,"labelrank":5}},{"type":"Feature","geometry":{"type":"Point","coordinates":[7.466976,46.916683]},"properties":{"name":"Bern","country":"Switzerland","iso2":"CH","pop":275329,"labelrank":7}},{"type":"Feature","geometry":{"type":"Point","coordinates":[-13.200006,27.149982]},"properties":{"name":"Laayoune","country":"Morocco","iso2":"MA","pop":188084,"labelrank":5}},{"type":"Feature","geometry":{"type":"Point","coordinates":[21.165984,42.66671]},"properties":{"name":"Pristina","country":"Kosovo","iso2":"-99","pop":465186,"labelrank":8}},{"type":"Feature","geometry":{"type":"Point","coordinates":[-61.387013,15.301016]},"properties":{"name":"Roseau","country":"Dominica","iso2":"DM","pop":23336,"labelrank":8}},{"type":"Feature","geometry":{"type":"Point","coordinates":[43.148002,11.595014]},"properties":{"name":"Djibouti","country":"Djibouti","iso2":"DJ","pop":923000,"labelrank":8}},{"type":"Feature","geometry":{"type":"Point","coordinates":[101.695037,2.932515]},"properties":{"name":"Putrajaya","country":"Malaysia","iso2":"MY","pop":67964,"labelrank":6}},{"type":"Feature","geometry":{"type":"Point","coordinates":[135.748052,35.031938]},"properties":{"name":"Kyoto","country":"Japan","iso2":"JP","pop":1805000,"labelrank":2}},{"type":"Feature","geometry":{"type":"Point","coordinates":[-16.591701,13.453876]},"properties":{"name":"Banjul","country":"The Gambia","iso2":"GM","pop":43094,"labelrank":8}},{"type":"Feature","geometry":{"type":"Point","coordinates":[21.433461,42.000006]},"properties":{"name":"Skopje","country":"North Macedonia","iso2":"MK","pop":494087,"labelrank":8}},{"type":"Feature","geometry":{"type":"Point","coordinates":[-59.616527,13.102003]},"properties":{"name":"Bridgetown","country":"Barbados","iso2":"BB","pop":191152,"labelrank":8}},{"type":"Feature","geometry":{"type":"Point","coordinates":[2.616626,6.483311]},"properties":{"name":"Porto-Novo","country":"Benin","iso2":"BJ","pop":300000,"labelrank":8}},{"type":"Feature","geometry":{"type":"Point","coordinates":[29.360006,-3.376087]},"properties":{"name":"Bujumbura","country":"Burundi","iso2":"BI","pop":331700,"labelrank":8}},{"type":"Feature","geometry":{"type":"Point","coordinates":[-61.220236,13.155756]},"properties":{"name":"Kingstown","country":"Saint Vincent and the Grenadines","iso2":"VC","pop":49485,"labelrank":5}},{"type":"Feature","geometry":{"type":"Point","coordinates":[-60.992875,14.007875]},"properties":{"name":"Castries","country":"Saint Lucia","iso2":"LC","pop":37963,"labelrank":5}},{"type":"Feature","geometry":{"type":"Point","coordinates":[-62.717009,17.302031]},"properties":{"name":"Basseterre","country":"Saint Kitts and Nevis","iso2":"KN","pop":21887,"labelrank":5}},{"type":"Feature","geometry":{"type":"Point","coordinates":[57.499994,-20.166639]},"properties":{"name":"Port Louis","country":"Mauritius","iso2":"MU","pop":595491,"labelrank":5}},{"type":"Feature","geometry":{"type":"Point","coordinates":[-61.741643,12.052633]},"properties":{"name":"Saint George's","country":"Grenada","iso2":"GD","pop":33734,"labelrank":5}},{"type":"Feature","geometry":{"type":"Point","coordinates":[50.583052,26.236136]},"properties":{"name":"Manama","country":"Bahrain","iso2":"BH","pop":563920,"labelrank":5}},{"type":"Feature","geometry":{"type":"Point","coordinates":[-61.850034,17.118036]},"properties":{"name":"Saint John's","country":"Antigua and Barbuda","iso2":"AG","pop":35499,"labelrank":5}},{"type":"Feature","geometry":{"type":"Point","coordinates":[-56.186823,-34.905376]},"properties":{"name":"Montevideo","country":"Uruguay","iso2":"UY","pop":1513000,"labelrank":8}},{"type":"Feature","geometry":{"type":"Point","coordinates":[1.220811,6.133883]},"properties":{"name":"Lome","country":"Togo","iso2":"TG","pop":1452000,"labelrank":8}},{"type":"Feature","geometry":{"type":"Point","coordinates":[10.179678,36.802778]},"properties":{"name":"Tunis","country":"Tunisia","iso2":"TN","pop":2412500,"labelrank":7}},{"type":"Feature","geometry":{"type":"Point","coordinates":[54.366593,24.466684]},"properties":{"name":"Abu Dhabi","country":"United Arab Emirates","iso2":"AE","pop":603492,"labelrank":8}},{"type":"Feature","geometry":{"type":"Point","coordinates":[58.383299,37.949995]},"properties":{"name":"Ashgabat","country":"Turkmenistan","iso2":"TM","pop":727700,"labelrank":8}},{"type":"Feature","geometry":{"type":"Point","coordinates":[28.281382,-15.414698]},"properties":{"name":"Lusaka","country":"Zambia","iso2":"ZM","pop":1328000,"labelrank":6}},{"type":"Feature","geometry":{"type":"Point","coordinates":[31.042764,-17.815844]},"properties":{"name":"Harare","country":"Zimbabwe","iso2":"ZW","pop":1572000,"labelrank":6}},{"type":"Feature","geometry":{"type":"Point","coordinates":[125.579456,-8.559388]},"properties":{"name":"Dili","country":"East Timor","iso2":"TL","pop":234331,"labelrank":8}},{"type":"Feature","geometry":{"type":"Point","coordinates":[168.316641,-17.73335]},"properties":{"name":"Port Vila","country":"Vanuatu","iso2":"VU","pop":44040,"labelrank":8}},{"type":"Feature","geometry":{"type":"Point","coordinates":[-87.219475,14.103991]},"properties":{"name":"Tegucigalpa","country":"Honduras","iso2":"HN","pop":946000,"labelrank":8}},{"type":"Feature","geometry":{"type":"Point","coordinates":[-58.167029,6.801974]},"properties":{"name":"Georgetown","country":"Guyana","iso2":"GY","pop":264350,"labelrank":8}},{"type":"Feature","geometry":{"type":"Point","coordinates":[-21.936546,64.143459]},"properties":{"name":"Reykjavik","country":"Iceland","iso2":"IS","pop":166212,"labelrank":8}},{"type":"Feature","geometry":{"type":"Point","coordinates":[-72.33798,18.54297]},"properties":{"name":"Port-au-Prince","country":"Haiti","iso2":"HT","pop":1998000,"labelrank":8}},{"type":"Feature","geometry":{"type":"Point","coordinates":[32.581378,0.318605]},"properties":{"name":"Kampala","country":"Uganda","iso2":"UG","pop":1420000,"labelrank":5}},{"type":"Feature","geometry":{"type":"Point","coordinates":[-55.167031,5.83503]},"properties":{"name":"Paramaribo","country":"Suriname","iso2":"SR","pop":254169,"labelrank":8}},{"type":"Feature","geometry":{"type":"Point","coordinates":[2.11471,13.518652]},"properties":{"name":"Niamey","country":"Niger","iso2":"NE","pop":915000,"labelrank":6}},{"type":"Feature","geometry":{"type":"Point","coordinates":[68.773879,38.560035]},"properties":{"name":"Dushanbe","country":"Tajikistan","iso2":"TJ","pop":1086244,"labelrank":8}},{"type":"Feature","geometry":{"type":"Point","coordinates":[-57.625834,-25.290671]},"properties":{"name":"Asuncion","country":"Paraguay","iso2":"PY","pop":1870000,"labelrank":7}},{"type":"Feature","geometry":{"type":"Point","coordinates":[-86.270437,12.154962]},"properties":{"name":"Managua","country":"Nicaragua","iso2":"NI","pop":920000,"labelrank":8}},{"type":"Feature","geometry":{"type":"Point","coordinates":[-13.236162,8.471957]},"properties":{"name":"Freetown","country":"Sierra Leone","iso2":"SL","pop":827000,"labelrank":8}},{"type":"Feature","geometry":{"type":"Point","coordinates":[73.08063,33.689368]},"properties":{"name":"Islamabad","country":"Pakistan","iso2":"PK","pop":780000,"labelrank":2}},{"type":"Feature","geometry":{"type":"Point","coordinates":[85.314696,27.718638]},"properties":{"name":"Kathmandu","country":"Nepal","iso2":"NP","pop":895000,"labelrank":6}},{"type":"Feature","geometry":{"type":"Point","coordinates":[26.229913,-29.119994]},"properties":{"name":"Bloemfontein","country":"South Africa","iso2":"ZA","pop":463064,"labelrank":3}},{"type":"Feature","geometry":{"type":"Point","coordinates":[28.227483,-25.704975]},"properties":{"name":"Pretoria","country":"South Africa","iso2":"ZA","pop":1338000,"labelrank":3}},{"type":"Feature","geometry":{"type":"Point","coordinates":[147.192504,-9.464708]},"properties":{"name":"Port Moresby","country":"Papua New Guinea","iso2":"PG","pop":283733,"labelrank":8}},{"type":"Feature","geometry":{"type":"Point","coordinates":[159.949766,-9.437994]},"properties":{"name":"Honiara","country":"Solomon Islands","iso2":"SB","pop":76328,"labelrank":8}},{"type":"Feature","geometry":{"type":"Point","coordinates":[-79.534983,8.969963]},"properties":{"name":"Panama City","country":"Panama","iso2":"PA","pop":1281000,"labelrank":8}},{"type":"Feature","geometry":{"type":"Point","coordinates":[-6.836408,34.025307]},"properties":{"name":"Rabat","country":"Morocco","iso2":"MA","pop":1705000,"labelrank":5}},{"type":"Feature","geometry":{"type":"Point","coordinates":[28.857711,47.005024]},"properties":{"name":"Chisinau","country":"Moldova","iso2":"MD","pop":688134,"labelrank":8}},{"type":"Feature","geometry":{"type":"Point","coordinates":[32.587217,-25.953332]},"properties":{"name":"Maputo","country":"Mozambique","iso2":"MZ","pop":1446000,"labelrank":6}},{"type":"Feature","geometry":{"type":"Point","coordinates":[45.364732,2.068627]},"properties":{"name":"Mogadishu","country":"Somalia","iso2":"SO","pop":1100000,"labelrank":8}},{"type":"Feature","geometry":{"type":"Point","coordinates":[58.378311,23.585179]},"properties":{"name":"Muscat","country":"Oman","iso2":"OM","pop":734697,"labelrank":8}},{"type":"Feature","geometry":{"type":"Point","coordinates":[79.857751,6.931966]},"properties":{"name":"Colombo","country":"Sri Lanka","iso2":"LK","pop":217000,"labelrank":6}},{"type":"Feature","geometry":{"type":"Point","coordinates":[106.91467,47.918619]},"properties":{"name":"Ulaanbaatar","country":"Mongolia","iso2":"MN","pop":885000,"labelrank":7}},{"type":"Feature","geometry":{"type":"Point","coordinates":[17.083546,-22.570006]},"properties":{"name":"Windhoek","country":"Namibia","iso2":"NA","pop":268132,"labelrank":6}},{"type":"Feature","geometry":{"type":"Point","coordinates":[7.489505,9.05462]},"properties":{"name":"Abuja","country":"Nigeria","iso2":"NG","pop":1576000,"labelrank":2}},{"type":"Feature","geometry":{"type":"Point","coordinates":[-15.598361,11.865024]},"properties":{"name":"Bissau","country":"Guinea Bissau","iso2":"GW","pop":403339,"labelrank":8}},{"type":"Feature","geometry":{"type":"Point","coordinates":[35.931354,31.951971]},"properties":{"name":"Amman","country":"Jordan","iso2":"JO","pop":1060000,"labelrank":8}},{"type":"Feature","geometry":{"type":"Point","coordinates":[25.316635,54.683366]},"properties":{"name":"Vilnius","country":"Lithuania","iso2":"LT","pop":542366,"labelrank":8}},{"type":"Feature","geometry":{"type":"Point","coordinates":[24.099965,56.950024]},"properties":{"name":"Riga","country":"Latvia","iso2":"LV","pop":742572,"labelrank":8}},{"type":"Feature","geometry":{"type":"Point","coordinates":[74.583258,42.875025]},"properties":{"name":"Bishkek","country":"Kyrgyzstan","iso2":"KG","pop":837000,"labelrank":8}},{"type":"Feature","geometry":{"type":"Point","coordinates":[27.483273,-29.316674]},"properties":{"name":"Maseru","country":"Lesotho","iso2":"LS","pop":361324,"labelrank":8}},{"type":"Feature","geometry":{"type":"Point","coordinates":[47.514678,-18.914691]},"properties":{"name":"Antananarivo","country":"Madagascar","iso2":"MG","pop":1697000,"labelrank":6}},{"type":"Feature","geometry":{"type":"Point","coordinates":[-78.501997,-0.213042]},"properties":{"name":"Quito","country":"Ecuador","iso2":"EC","pop":1701000,"labelrank":7}},{"type":"Feature","geometry":{"type":"Point","coordinates":[-84.078814,9.930371]},"properties":{"name":"San Jose","country":"Costa Rica","iso2":"CR","pop":1284000,"labelrank":8}},{"type":"Feature","geometry":{"type":"Point","coordinates":[-89.215576,13.70328]},"properties":{"name":"San Salvador","country":"El Salvador","iso2":"SV","pop":1433000,"labelrank":8}},{"type":"Feature","geometry":{"type":"Point","coordinates":[-76.767434,17.977077]},"properties":{"name":"Kingston","country":"Jamaica","iso2":"JM","pop":937700,"labelrank":8}},{"type":"Feature","geometry":{"type":"Point","coordinates":[15.047202,12.115042]},"properties":{"name":"Ndjamena","country":"Chad","iso2":"TD","pop":989000,"labelrank":7}},{"type":"Feature","geometry":{"type":"Point","coordinates":[8.783278,3.750015]},"properties":{"name":"Malabo","country":"Equatorial Guinea","iso2":"GQ","pop":155963,"labelrank":8}},{"type":"Feature","geometry":{"type":"Point","coordinates":[38.933324,15.333339]},"properties":{"name":"Asmara","country":"Eritrea","iso2":"ER","pop":620802,"labelrank":8}},{"type":"Feature","geometry":{"type":"Point","coordinates":[15.999995,45.800007]},"properties":{"name":"Zagreb","country":"Croatia","iso2":"HR","pop":722526,"labelrank":8}},{"type":"Feature","geometry":{"type":"Point","coordinates":[24.728041,59.433877]},"properties":{"name":"Tallinn","country":"Estonia","iso2":"EE","pop":394024,"labelrank":8}},{"type":"Feature","geometry":{"type":"Point","coordinates":[33.783302,-13.983295]},"properties":{"name":"Lilongwe","country":"Malawi","iso2":"MW","pop":646750,"labelrank":8}},{"type":"Feature","geometry":{"type":"Point","coordinates":[-90.528911,14.623081]},"properties":{"name":"Guatemala","country":"Guatemala","iso2":"GT","pop":1024000,"labelrank":8}},{"type":"Feature","geometry":{"type":"Point","coordinates":[9.457965,0.385389]},"properties":{"name":"Libreville","country":"Gabon","iso2":"GA","pop":578156,"labelrank":7}},{"type":"Feature","geometry":{"type":"Point","coordinates":[178.441707,-18.133016]},"properties":{"name":"Suva","country":"Fiji","iso2":"FJ","pop":175399,"labelrank":8}},{"type":"Feature","geometry":{"type":"Point","coordinates":[-71.617026,-33.047739]},"properties":{"name":"Valparaiso","country":"Chile","iso2":"CL","pop":854000,"labelrank":3}},{"type":"Feature","geometry":{"type":"Point","coordinates":[-15.97534,18.086427]},"properties":{"name":"Nouakchott","country":"Mauritania","iso2":"MR","pop":742144,"labelrank":7}},{"type":"Feature","geometry":{"type":"Point","coordinates":[-8.001985,12.65196]},"properties":{"name":"Bamako","country":"Mali","iso2":"ML","pop":1494000,"labelrank":6}},{"type":"Feature","geometry":{"type":"Point","coordinates":[35.507762,33.873921]},"properties":{"name":"Beirut","country":"Lebanon","iso2":"LB","pop":1846000,"labelrank":8}},{"type":"Feature","geometry":{"type":"Point","coordinates":[44.78885,41.726956]},"properties":{"name":"Tbilisi","country":"Georgia","iso2":"GE","pop":1100000,"labelrank":8}},{"type":"Feature","geometry":{"type":"Point","coordinates":[71.427774,51.181125]},"properties":{"name":"Astana","country":"Kazakhstan","iso2":"KZ","pop":345604,"labelrank":6}},{"type":"Feature","geometry":{"type":"Point","coordinates":[102.59998,17.966693]},"properties":{"name":"Vientiane","country":"Laos","iso2":"LA","pop":754000,"labelrank":8}},{"type":"Feature","geometry":{"type":"Point","coordinates":[15.282744,-4.25724]},"properties":{"name":"Brazzaville","country":"Congo (Brazzaville)","iso2":"CG","pop":1355000,"labelrank":7}},{"type":"Feature","geometry":{"type":"Point","coordinates":[-13.682181,9.533469]},"properties":{"name":"Conakry","country":"Guinea","iso2":"GN","pop":1494000,"labelrank":8}},{"type":"Feature","geometry":{"type":"Point","coordinates":[-5.275503,6.818381]},"properties":{"name":"Yamoussoukro","country":"Ivory Coast","iso2":"CI","pop":206499,"labelrank":8}},{"type":"Feature","geometry":{"type":"Point","coordinates":[-75.701961,45.418643]},"properties":{"name":"Ottawa","country":"Canada","iso2":"CA","pop":1145000,"labelrank":2}},{"type":"Feature","geometry":{"type":"Point","coordinates":[20.466045,44.820591]},"properties":{"name":"Belgrade","country":"Serbia","iso2":"RS","pop":1099000,"labelrank":8}},{"type":"Feature","geometry":{"type":"Point","coordinates":[114.933284,4.883331]},"properties":{"name":"Bandar Seri Begawan","country":"Brunei","iso2":"BN","pop":296500,"labelrank":8}},{"type":"Feature","geometry":{"type":"Point","coordinates":[-65.259516,-19.040971]},"properties":{"name":"Sucre","country":"Bolivia","iso2":"BO","pop":224838,"labelrank":6}},{"type":"Feature","geometry":{"type":"Point","coordinates":[-88.767073,17.252033]},"properties":{"name":"Belmopan","country":"Belize","iso2":"BZ","pop":15220,"labelrank":8}},{"type":"Feature","geometry":{"type":"Point","coordinates":[18.558288,4.366644]},"properties":{"name":"Bangui","country":"Central African Republic","iso2":"CF","pop":831925,"labelrank":7}},{"type":"Feature","geometry":{"type":"Point","coordinates":[11.514705,3.868647]},"properties":{"name":"Yaounde","country":"Cameroon","iso2":"CM","pop":1611000,"labelrank":6}},{"type":"Feature","geometry":{"type":"Point","coordinates":[19.818883,41.327541]},"properties":{"name":"Tirana","country":"Albania","iso2":"AL","pop":895350,"labelrank":8}},{"type":"Feature","geometry":{"type":"Point","coordinates":[44.511606,40.183097]},"properties":{"name":"Yerevan","country":"Armenia","iso2":"AM","pop":1102000,"labelrank":8}},{"type":"Feature","geometry":{"type":"Point","coordinates":[49.860271,40.397218]},"properties":{"name":"Baku","country":"Azerbaijan","iso2":"AZ","pop":2122300,"labelrank":8}},{"type":"Feature","geometry":{"type":"Point","coordinates":[104.914689,11.551976]},"properties":{"name":"Phnom Penh","country":"Cambodia","iso2":"KH","pop":1466000,"labelrank":8}},{"type":"Feature","geometry":{"type":"Point","coordinates":[-68.151931,-16.496028]},"properties":{"name":"La Paz","country":"Bolivia","iso2":"BO","pop":1590000,"labelrank":6}},{"type":"Feature","geometry":{"type":"Point","coordinates":[2.404355,6.36298]},"properties":{"name":"Cotonou","country":"Benin","iso2":"BJ","pop":762000,"labelrank":8}},{"type":"Feature","geometry":{"type":"Point","coordinates":[23.314708,42.685295]},"properties":{"name":"Sofia","country":"Bulgaria","iso2":"BG","pop":1185000,"labelrank":7}},{"type":"Feature","geometry":{"type":"Point","coordinates":[27.564681,53.901923]},"properties":{"name":"Minsk","country":"Belarus","iso2":"BY","pop":1805000,"labelrank":6}},{"type":"Feature","geometry":{"type":"Point","coordinates":[89.639014,27.472986]},"properties":{"name":"Thimphu","country":"Bhutan","iso2":"BT","pop":98676,"labelrank":8}},{"type":"Feature","geometry":{"type":"Point","coordinates":[25.911948,-24.646314]},"properties":{"name":"Gaborone","country":"Botswana","iso2":"BW","pop":208411,"labelrank":7}},{"type":"Feature","geometry":{"type":"Point","coordinates":[149.129026,-35.283029]},"properties":{"name":"Canberra","country":"Australia","iso2":"AU","pop":327700,"labelrank":3}},{"type":"Feature","geometry":{"type":"Point","coordinates":[-1.52667,12.372262]},"properties":{"name":"Ouagadougou","country":"Burkina Faso","iso2":"BF","pop":1149000,"labelrank":8}},{"type":"Feature","geometry":{"type":"Point","coordinates":[18.383002,43.850022]},"properties":{"name":"Sarajevo","country":"Bosnia and Herzegovina","iso2":"BA","pop":696731,"labelrank":8}},{"type":"Feature","geometry":{"type":"Point","coordinates":[96.116673,19.768503]},"properties":{"name":"Naypyidaw","country":"Myanmar","iso2":"MM","pop":930000,"labelrank":5}},{"type":"Feature","geometry":{"type":"Point","coordinates":[-175.220564,-21.138512]},"properties":{"name":"Nukualofa","country":"Tonga","iso2":"TO","pop":42620,"labelrank":5}},{"type":"Feature","geometry":{"type":"Point","coordinates":[44.06531,9.560022]},"properties":{"name":"Hargeysa","country":"Somaliland","iso2":"-99","pop":477876,"labelrank":5}},{"type":"Feature","geometry":{"type":"Point","coordinates":[55.44999,-4.616632]},"properties":{"name":"Victoria","country":"Seychelles","iso2":"SC","pop":33576,"labelrank":5}},{"type":"Feature","geometry":{"type":"Point","coordinates":[6.72965,0.337466]},"properties":{"name":"Sao Tome","country":"Sao Tome and Principe","iso2":"ST","pop":88219,"labelrank":5}},{"type":"Feature","geometry":{"type":"Point","coordinates":[-171.768599,-13.835715]},"properties":{"name":"Apia","country":"Samoa","iso2":"WS","pop":61916,"labelrank":5}},{"type":"Feature","geometry":{"type":"Point","coordinates":[14.514711,35.899732]},"properties":{"name":"Valletta","country":"Malta","iso2":"MT","pop":368250,"labelrank":5}},{"type":"Feature","geometry":{"type":"Point","coordinates":[73.508901,4.172037]},"properties":{"name":"Male","country":"Maldives","iso2":"MV","pop":112927,"labelrank":5}},{"type":"Feature","geometry":{"type":"Point","coordinates":[35.206626,31.778408]},"properties":{"name":"Jerusalem","country":"Israel","iso2":"IL","pop":1029300,"labelrank":5}},{"type":"Feature","geometry":{"type":"Point","coordinates":[-23.516689,14.916698]},"properties":{"name":"Praia","country":"Cape Verde","iso2":"CV","pop":113364,"labelrank":5}},{"type":"Feature","geometry":{"type":"Point","coordinates":[-77.350044,25.08339]},"properties":{"name":"Nassau","country":"The Bahamas","iso2":"BS","pop":227940,"labelrank":5}},{"type":"Feature","geometry":{"type":"Point","coordinates":[33.366635,35.166677]},"properties":{"name":"Nicosia","country":"Cyprus","iso2":"CY","pop":224300,"labelrank":5}},{"type":"Feature","geometry":{"type":"Point","coordinates":[174.777201,-41.292068]},"properties":{"name":"Wellington","country":"New Zealand","iso2":"NZ","pop":393400,"labelrank":8}},{"type":"Feature","geometry":{"type":"Point","coordinates":[105.848068,21.035273]},"properties":{"name":"Hanoi","country":"Vietnam","iso2":"VN","pop":4378000,"labelrank":5}},{"type":"Feature","geometry":{"type":"Point","coordinates":[32.862446,39.929184]},"properties":{"name":"Ankara","country":"Turkey","iso2":"TR","pop":3716000,"labelrank":5}},{"type":"Feature","geometry":{"type":"Point","coordinates":[19.081375,47.501952]},"properties":{"name":"Budapest","country":"Hungary","iso2":"HU","pop":1679000,"labelrank":6}},{"type":"Feature","geometry":{"type":"Point","coordinates":[44.204648,15.356679]},"properties":{"name":"Sanaa","country":"Yemen","iso2":"YE","pop":2008000,"labelrank":6}},{"type":"Feature","geometry":{"type":"Point","coordinates":[26.098001,44.435318]},"properties":{"name":"Bucharest","country":"Romania","iso2":"RO","pop":1942000,"labelrank":6}},{"type":"Feature","geometry":{"type":"Point","coordinates":[36.29805,33.50198]},"properties":{"name":"Damascus","country":"Syria","iso2":"SY","pop":2466000,"labelrank":6}},{"type":"Feature","geometry":{"type":"Point","coordinates":[-9.146812,38.724669]},"properties":{"name":"Lisbon","country":"Portugal","iso2":"PT","pop":2812000,"labelrank":6}},{"type":"Feature","geometry":{"type":"Point","coordinates":[32.532233,15.590024]},"properties":{"name":"Khartoum","country":"Sudan","iso2":"SD","pop":4754000,"labelrank":5}},{"type":"Feature","geometry":{"type":"Point","coordinates":[10.748033,59.918636]},"properties":{"name":"Oslo","country":"Norway","iso2":"NO","pop":835000,"labelrank":7}},{"type":"Feature","geometry":{"type":"Point","coordinates":[21.005347,52.230872]},"properties":{"name":"Warsaw","country":"Poland","iso2":"PL","pop":1707000,"labelrank":5}},{"type":"Feature","geometry":{"type":"Point","coordinates":[125.752745,39.021385]},"properties":{"name":"Pyongyang","country":"North Korea","iso2":"KP","pop":3300000,"labelrank":6}},{"type":"Feature","geometry":{"type":"Point","coordinates":[39.266396,-6.798067]},"properties":{"name":"Dar es Salaam","country":"Tanzania","iso2":"TZ","pop":2930000,"labelrank":5}},{"type":"Feature","geometry":{"type":"Point","coordinates":[-6.25698,53.346731]},"properties":{"name":"Dublin","country":"Ireland","iso2":"IE","pop":1059000,"labelrank":8}},{"type":"Feature","geometry":{"type":"Point","coordinates":[-10.79966,6.314582]},"properties":{"name":"Monrovia","country":"Liberia","iso2":"LR","pop":1041000,"labelrank":8}},{"type":"Feature","geometry":{"type":"Point","coordinates":[101.688699,3.139797]},"properties":{"name":"Kuala Lumpur","country":"Malaysia","iso2":"MY","pop":1448000,"labelrank":6}},{"type":"Feature","geometry":{"type":"Point","coordinates":[-82.366128,23.133905]},"properties":{"name":"Havana","country":"Cuba","iso2":"CU","pop":2174000,"labelrank":6}},{"type":"Feature","geometry":{"type":"Point","coordinates":[14.422939,50.086967]},"properties":{"name":"Prague","country":"Czechia","iso2":"CZ","pop":1162000,"labelrank":7}},{"type":"Feature","geometry":{"type":"Point","coordinates":[47.976355,29.371664]},"properties":{"name":"Kuwait City","country":"Kuwait","iso2":"KW","pop":2063000,"labelrank":8}},{"type":"Feature","geometry":{"type":"Point","coordinates":[-69.929742,18.470745]},"properties":{"name":"Santo Domingo","country":"Dominican Republic","iso2":"DO","pop":2154000,"labelrank":8}},{"type":"Feature","geometry":{"type":"Point","coordinates":[-0.218662,5.55198]},"properties":{"name":"Accra","country":"Ghana","iso2":"GH","pop":2121000,"labelrank":6}},{"type":"Feature","geometry":{"type":"Point","coordinates":[13.180012,32.8925]},"properties":{"name":"Tripoli","country":"Libya","iso2":"LY","pop":2189000,"labelrank":7}},{"type":"Feature","geometry":{"type":"Point","coordinates":[34.768066,32.081937]},"properties":{"name":"Tel Aviv-Yafo","country":"Israel","iso2":"IL","pop":3112000,"labelrank":8}},{"type":"Feature","geometry":{"type":"Point","coordinates":[24.932457,60.163804]},"properties":{"name":"Helsinki","country":"Finland","iso2":"FI","pop":1115000,"labelrank":7}},{"type":"Feature","geometry":{"type":"Point","coordinates":[12.56154,55.68051]},"properties":{"name":"Kobenhavn","country":"Denmark","iso2":"DK","pop":1085000,"labelrank":8}},{"type":"Feature","geometry":{"type":"Point","coordinates":[-4.020207,5.323126]},"properties":{"name":"Abidjan","country":"Ivory Coast","iso2":"CI","pop":3802000,"labelrank":8}},{"type":"Feature","geometry":{"type":"Point","coordinates":[-47.917998,-15.781394]},"properties":{"name":"Brasilia","country":"Brazil","iso2":"BR","pop":3716996,"labelrank":1}},{"type":"Feature","geometry":{"type":"Point","coordinates":[4.331371,50.835263]},"properties":{"name":"Brussels","country":"Belgium","iso2":"BE","pop":1743000,"labelrank":8}},{"type":"Feature","geometry":{"type":"Point","coordinates":[90.406634,23.725006]},"properties":{"name":"Dhaka","country":"Bangladesh","iso2":"BD","pop":12797394,"labelrank":2}},{"type":"Feature","geometry":{"type":"Point","coordinates":[13.232481,-8.83634]},"properties":{"name":"Luanda","country":"Angola","iso2":"AO","pop":5172900,"labelrank":6}},{"type":"Feature","geometry":{"type":"Point","coordinates":[3.048607,36.765011]},"properties":{"name":"Algiers","country":"Algeria","iso2":"DZ","pop":3354000,"labelrank":5}},{"type":"Feature","geometry":{"type":"Point","coordinates":[96.164732,16.7853]},"properties":{"name":"Rangoon","country":"Myanmar","iso2":"MM","pop":4088000,"labelrank":5}},{"type":"Feature","geometry":{"type":"Point","coordinates":[-66.918983,10.502944]},"properties":{"name":"Caracas","country":"Venezuela","iso2":"VE","pop":2985000,"labelrank":6}},{"type":"Feature","geometry":{"type":"Point","coordinates":[30.514682,50.435313]},"properties":{"name":"Kiev","country":"Ukraine","iso2":"UA","pop":2709000,"labelrank":5}},{"type":"Feature","geometry":{"type":"Point","coordinates":[69.268823,41.303828]},"properties":{"name":"Tashkent","country":"Uzbekistan","iso2":"UZ","pop":2184000,"labelrank":6}},{"type":"Feature","geometry":{"type":"Point","coordinates":[-3.685297,40.401972]},"properties":{"name":"Madrid","country":"Spain","iso2":"ES","pop":5567000,"labelrank":3}},{"type":"Feature","geometry":{"type":"Point","coordinates":[18.0663,59.324127]},"properties":{"name":"Stockholm","country":"Sweden","iso2":"SE","pop":1264000,"labelrank":7}},{"type":"Feature","geometry":{"type":"Point","coordinates":[100.514699,13.751945]},"properties":{"name":"Bangkok","country":"Thailand","iso2":"TH","pop":6704000,"labelrank":5}},{"type":"Feature","geometry":{"type":"Point","coordinates":[-77.052008,-12.046067]},"properties":{"name":"Lima","country":"Peru","iso2":"PE","pop":8012000,"labelrank":5}},{"type":"Feature","geometry":{"type":"Point","coordinates":[-17.475076,14.717778]},"properties":{"name":"Dakar","country":"Senegal","iso2":"SN","pop":2604000,"labelrank":8}},{"type":"Feature","geometry":{"type":"Point","coordinates":[28.028064,-26.168099]},"properties":{"name":"Johannesburg","country":"South Africa","iso2":"ZA","pop":3435000,"labelrank":3}},{"type":"Feature","geometry":{"type":"Point","coordinates":[4.914694,52.351914]},"properties":{"name":"Amsterdam","country":"Netherlands","iso2":"NL","pop":1031000,"labelrank":8}},{"type":"Feature","geometry":{"type":"Point","coordinates":[126.997785,37.568295]},"properties":{"name":"Seoul","country":"South Korea","iso2":"KR","pop":9796000,"labelrank":3}},{"type":"Feature","geometry":{"type":"Point","coordinates":[120.980271,14.606105]},"properties":{"name":"Manila","country":"Philippines","iso2":"PH","pop":11100000,"labelrank":5}},{"type":"Feature","geometry":{"type":"Point","coordinates":[13.399603,52.523764]},"properties":{"name":"Berlin","country":"Germany","iso2":"DE","pop":3406000,"labelrank":3}},{"type":"Feature","geometry":{"type":"Point","coordinates":[15.313026,-4.327778]},"properties":{"name":"Kinshasa","country":"Congo (Kinshasa)","iso2":"CD","pop":7843000,"labelrank":3}},{"type":"Feature","geometry":{"type":"Point","coordinates":[77.19998,28.600023]},"properties":{"name":"New Delhi","country":"India","iso2":"IN","pop":317797,"labelrank":1}},{"type":"Feature","geometry":{"type":"Point","coordinates":[23.731375,37.985272]},"properties":{"name":"Athens","country":"Greece","iso2":"GR","pop":3242000,"labelrank":6}},{"type":"Feature","geometry":{"type":"Point","coordinates":[44.391923,33.340594]},"properties":{"name":"Baghdad","country":"Iraq","iso2":"IQ","pop":5054000,"labelrank":5}},{"type":"Feature","geometry":{"type":"Point","coordinates":[38.698059,9.035256]},"properties":{"name":"Addis Ababa","country":"Ethiopia","iso2":"ET","pop":3100000,"labelrank":3}},{"type":"Feature","geometry":{"type":"Point","coordinates":[51.422398,35.673889]},"properties":{"name":"Tehran","country":"Iran","iso2":"IR","pop":7873000,"labelrank":5}},{"type":"Feature","geometry":{"type":"Point","coordinates":[-58.432513,-34.610715]},"properties":{"name":"Buenos Aires","country":"Argentina","iso2":"AR","pop":12795000,"labelrank":3}},{"type":"Feature","geometry":{"type":"Point","coordinates":[69.181314,34.518636]},"properties":{"name":"Kabul","country":"Afghanistan","iso2":"AF","pop":3277000,"labelrank":5}},{"type":"Feature","geometry":{"type":"Point","coordinates":[16.364693,48.201961]},"properties":{"name":"Vienna","country":"Austria","iso2":"AT","pop":2400000,"labelrank":7}},{"type":"Feature","geometry":{"type":"Point","coordinates":[121.568333,25.035833]},"properties":{"name":"Taipei","country":"Taiwan","iso2":"TW","pop":6900273,"labelrank":8}},{"type":"Feature","geometry":{"type":"Point","coordinates":[-77.011364,38.901495]},"properties":{"name":"Washington, D.C.","country":"United States of America","iso2":"US","pop":4338000,"labelrank":1}},{"type":"Feature","geometry":{"type":"Point","coordinates":[-0.118668,51.501941]},"properties":{"name":"London","country":"United Kingdom","iso2":"GB","pop":8567000,"labelrank":5}},{"type":"Feature","geometry":{"type":"Point","coordinates":[46.720487,24.634497]},"properties":{"name":"Riyadh","country":"Saudi Arabia","iso2":"SA","pop":4465000,"labelrank":5}},{"type":"Feature","geometry":{"type":"Point","coordinates":[18.433042,-33.918065]},"properties":{"name":"Cape Town","country":"South Africa","iso2":"ZA","pop":3215000,"labelrank":3}},{"type":"Feature","geometry":{"type":"Point","coordinates":[37.613577,55.75411]},"properties":{"name":"Moscow","country":"Russia","iso2":"RU","pop":10452000,"labelrank":2}},{"type":"Feature","geometry":{"type":"Point","coordinates":[-99.132934,19.444388]},"properties":{"name":"Mexico City","country":"Mexico","iso2":"MX","pop":19028000,"labelrank":2}},{"type":"Feature","geometry":{"type":"Point","coordinates":[3.389585,6.445208]},"properties":{"name":"Lagos","country":"Nigeria","iso2":"NG","pop":9466000,"labelrank":2}},{"type":"Feature","geometry":{"type":"Point","coordinates":[12.481313,41.897902]},"properties":{"name":"Rome","country":"Italy","iso2":"IT","pop":3339000,"labelrank":3}},{"type":"Feature","geometry":{"type":"Point","coordinates":[116.394201,39.90172]},"properties":{"name":"Beijing","country":"China","iso2":"CN","pop":11106000,"labelrank":1}},{"type":"Feature","geometry":{"type":"Point","coordinates":[36.814711,-1.281401]},"properties":{"name":"Nairobi","country":"Kenya","iso2":"KE","pop":3010000,"labelrank":5}},{"type":"Feature","geometry":{"type":"Point","coordinates":[106.827492,-6.172472]},"properties":{"name":"Jakarta","country":"Indonesia","iso2":"ID","pop":9125000,"labelrank":1}},{"type":"Feature","geometry":{"type":"Point","coordinates":[-74.08529,4.598369]},"properties":{"name":"Bogota","country":"Colombia","iso2":"CO","pop":7772000,"labelrank":5}},{"type":"Feature","geometry":{"type":"Point","coordinates":[31.248022,30.051906]},"properties":{"name":"Cairo","country":"Egypt","iso2":"EG","pop":11893000,"labelrank":3}},{"type":"Feature","geometry":{"type":"Point","coordinates":[139.749462,35.686963]},"properties":{"name":"Tokyo","country":"Japan","iso2":"JP","pop":35676000,"labelrank":2}},{"type":"Feature","geometry":{"type":"Point","coordinates":[2.352992,48.858092]},"properties":{"name":"Paris","country":"France","iso2":"FR","pop":9904000,"labelrank":3}},{"type":"Feature","geometry":{"type":"Point","coordinates":[-70.650504,-33.440205]},"properties":{"name":"Santiago","country":"Chile","iso2":"CL","pop":5720000,"labelrank":3}},{"type":"Feature","geometry":{"type":"Point","coordinates":[103.853875,1.294979]},"properties":{"name":"Singapore","country":"Singapore","iso2":"SG","pop":5183700,"labelrank":5}}]}